[{"OBJECT_NAME":"SHIYAN-6 01 (SY-6 01)","OBJECT_ID":"2018-094B","EPOCH":"2026-03-09T23:04:36.967872","MEAN_MOTION":15.28649156,"ECCENTRICITY":0.00144834,"INCLINATION":97.3669,"RA_OF_ASC_NODE":84.0964,"ARG_OF_PERICENTER":135.6758,"MEAN_ANOMALY":224.5644,"EPHEMERIS_TYPE":0,"CLASSIFICATION_TYPE":"U","NORAD_CAT_ID":43711,"ELEMENT_SET_NO":999,"REV_AT_EPOCH":40632,"BSTAR":0.00024768444,"MEAN_MOTION_DOT":6.847e-5,"MEAN_MOTION_DDOT":0},{"OBJECT_NAME":"STARLINK-34427","OBJECT_ID":"2025-133AC","EPOCH":"2026-03-09T10:42:55.335456","MEAN_MOTION":15.30190262,"ECCENTRICITY":0.00012115,"INCLINATION":53.1593,"RA_OF_ASC_NODE":117.7455,"ARG_OF_PERICENTER":91.1588,"MEAN_ANOMALY":268.9552,"EPHEMERIS_TYPE":0,"CLASSIFICATION_TYPE":"U","NORAD_CAT_ID":64498,"ELEMENT_SET_NO":999,"REV_AT_EPOCH":4115,"BSTAR":0.00048667063,"MEAN_MOTION_DOT":0.00014078,"MEAN_MOTION_DDOT":0}]
